{
"type": "FeatureCollection",
"name": "state_stations",
"crs": { "type": "name", "properties": { "name": "urn:ogc:def:crs:OGC:1.3:CRS84" } },
"features": [
{ "type": "Feature", "properties": { "name": "Akhuapada", "stationCode": "016-ERDBWN", "lat": 20.916944444444447, "lon": 86.279722222222219, "index_right": 48, "block_lgd": "03324", "dtname": "Bhadrak", "dtcode11": "378", "block_name": "BHANDARIPOKHARI", "object_id": "21-378-03324", "block_area": 248 }, "geometry": { "type": "Point", "coordinates": [ 86.279722222222219, 20.916944444444447 ] } },
{ "type": "Feature", "properties": { "name": "Anandpur", "stationCode": "015-ERDBWN", "lat": 21.211111111111112, "lon": 86.120555555555555, "index_right": 167, "block_lgd": "03443", "dtname": "Kendujhar", "dtcode11": "375", "block_name": "ANANDAPUR", "object_id": "21-375-03443", "block_area": 568 }, "geometry": { "type": "Point", "coordinates": [ 86.120555555555555, 21.211111111111112 ] } },
{ "type": "Feature", "properties": { "name": "Alipingal", "stationCode": "037-MDBURLA", "lat": 20.07, "lon": 86.17, "index_right": 115, "block_lgd": "03391", "dtname": "Jagatsinghapur", "dtcode11": "380", "block_name": "NAUGAON", "object_id": "21-380-03391", "block_area": 123 }, "geometry": { "type": "Point", "coordinates": [ 86.17, 20.07 ] } },
{ "type": "Feature", "properties": { "name": "Purusottampur", "stationCode": "029-ERDBWN", "lat": 19.516666666666666, "lon": 84.88333333333334, "index_right": 105, "block_lgd": "03381", "dtname": "Ganjam", "dtcode11": "388", "block_name": "PURUSHOTTAMPUR", "object_id": "21-388-03381", "block_area": 262 }, "geometry": { "type": "Point", "coordinates": [ 84.88333333333334, 19.516666666666666 ] } },
{ "type": "Feature", "properties": { "name": "Jenapur", "stationCode": "023-ERDBWN", "lat": 20.878888888888888, "lon": 86.01444444444445, "index_right": 121, "block_lgd": "03397", "dtname": "Jajapur", "dtcode11": "382", "block_name": "DAHRMASALA", "object_id": "21-382-03397", "block_area": 321 }, "geometry": { "type": "Point", "coordinates": [ 86.01444444444445, 20.878888888888888 ] } },
{ "type": "Feature", "properties": { "name": "Gunupur", "stationCode": "035-ERDBWN", "lat": 19.083333333333332, "lon": 83.805555555555557, "index_right": 274, "block_lgd": "03550", "dtname": "Rayagada", "dtcode11": "396", "block_name": "GUNUPUR", "object_id": "21-396-03550", "block_area": 601 }, "geometry": { "type": "Point", "coordinates": [ 83.805555555555557, 19.083333333333332 ] } },
{ "type": "Feature", "properties": { "name": "Nimapara", "stationCode": "039-mdburla", "lat": 20.06, "lon": 86.01, "index_right": 267, "block_lgd": "03543", "dtname": "Puri", "dtcode11": "387", "block_name": "NIMAPADA", "object_id": "21-387-03543", "block_area": 322 }, "geometry": { "type": "Point", "coordinates": [ 86.01, 20.06 ] } },
{ "type": "Feature", "properties": { "name": "Govindpur (NH5 Road Bridge)", "stationCode": "005-ERDBWN", "lat": 21.547777777777775, "lon": 86.918055555555554, "index_right": 31, "block_lgd": "03307", "dtname": "Baleshwar", "dtcode11": "377", "block_name": "REMUNA", "object_id": "21-377-03307", "block_area": 300 }, "geometry": { "type": "Point", "coordinates": [ 86.918055555555554, 21.547777777777775 ] } },
{ "type": "Feature", "properties": { "name": "Rajghat", "stationCode": "012-erdbwn", "lat": 21.767777777777777, "lon": 87.164166666666674, "index_right": 27, "block_lgd": "03303", "dtname": "Baleshwar", "dtcode11": "377", "block_name": "JALESWAR", "object_id": "21-377-03303", "block_area": 376 }, "geometry": { "type": "Point", "coordinates": [ 87.164166666666674, 21.767777777777777 ] } },
{ "type": "Feature", "properties": { "name": "Naraj", "stationCode": "036-MDBURLA", "lat": 20.47, "lon": 85.77, "index_right": 61, "block_lgd": "03337", "dtname": "Cuttack", "dtcode11": "381", "block_name": "CUTTACKSADAR", "object_id": "21-381-03337", "block_area": 362 }, "geometry": { "type": "Point", "coordinates": [ 85.77, 20.47 ] } },
{ "type": "Feature", "properties": { "name": "Kashinagar", "stationCode": "036-ERDBWN", "lat": 18.848333333333333, "lon": 83.873055555555553, "index_right": 83, "block_lgd": "03359", "dtname": "Gajapati", "dtcode11": "389", "block_name": "KASINAGAR", "object_id": "21-389-03359", "block_area": 225 }, "geometry": { "type": "Point", "coordinates": [ 83.873055555555553, 18.848333333333333 ] } },
{ "type": "Feature", "properties": { "name": "Rengali Reservoir", "stationCode": "061-ERDBWN", "lat": 21.28, "lon": 85.03, "index_right": 4, "block_lgd": "03280", "dtname": "Anugul", "dtcode11": "384", "block_name": "KANIHA", "object_id": "21-384-03280", "block_area": 713 }, "geometry": { "type": "Point", "coordinates": [ 85.03, 21.28 ] } },
{ "type": "Feature", "properties": { "name": "Salandi Reservoir", "stationCode": "055-erdbwn", "lat": 21.28, "lon": 86.3, "index_right": 173, "block_lgd": "03449", "dtname": "Kendujhar", "dtcode11": "375", "block_name": "HATADIHI", "object_id": "21-375-03449", "block_area": 435 }, "geometry": { "type": "Point", "coordinates": [ 86.3, 21.28 ] } },
{ "type": "Feature", "properties": { "name": "Upper Kolab Dam ", "stationCode": "48-lgdhyd", "lat": 18.788611111111113, "lon": 82.600833333333327, "index_right": 195, "block_lgd": "03471", "dtname": "Koraput", "dtcode11": "398", "block_name": "KORAPUT", "object_id": "21-398-03471", "block_area": 541 }, "geometry": { "type": "Point", "coordinates": [ 82.600833333333327, 18.788611111111113 ] } },
{ "type": "Feature", "properties": { "name": "Upper Indravati Dam", "stationCode": "47-LGDHYD", "lat": 19.27611111111111, "lon": 82.828333333333333, "index_right": 245, "block_lgd": "03521", "dtname": "Nabarangpur", "dtcode11": "397", "block_name": "TENTULIKHUNTI", "object_id": "21-397-03521", "block_area": 366 }, "geometry": { "type": "Point", "coordinates": [ 82.828333333333333, 19.27611111111111 ] } },
{ "type": "Feature", "properties": { "name": "Balimela dam (Sileru)", "stationCode": "50-LGDHYD", "lat": 18.140277777777776, "lon": 82.12277777777777, "index_right": 207, "block_lgd": "03483", "dtname": "Malkangiri", "dtcode11": "399", "block_name": "CHITRAKONDA", "object_id": "21-399-03483", "block_area": 1027 }, "geometry": { "type": "Point", "coordinates": [ 82.12277777777777, 18.140277777777776 ] } },
{ "type": "Feature", "properties": { "name": "Mathani Road Bridge", "stationCode": "060-erdbwn", "lat": 21.66, "lon": 87.06, "index_right": 25, "block_lgd": "03301", "dtname": "Baleshwar", "dtcode11": "377", "block_name": "BASTA", "object_id": "21-377-03301", "block_area": 266 }, "geometry": { "type": "Point", "coordinates": [ 87.06, 21.66 ] } },
{ "type": "Feature", "properties": { "name": "Hirakud Reservoir", "stationCode": "012-MDBURLA", "lat": 21.52, "lon": 83.85, "index_right": 283, "block_lgd": "03559", "dtname": "Sambalpur", "dtcode11": "372", "block_name": "DHANKAUDA", "object_id": "21-372-03559", "block_area": 497 }, "geometry": { "type": "Point", "coordinates": [ 83.85, 21.52 ] } },
{ "type": "Feature", "properties": { "name": "Marshaghai ", "stationCode": "032-MDBURLA", "lat": 20.3325, "lon": 86.480833333333337, "index_right": 114, "block_lgd": "03390", "dtname": "Jagatsinghapur", "dtcode11": "380", "block_name": "KUJANG", "object_id": "21-380-03390", "block_area": 284 }, "geometry": { "type": "Point", "coordinates": [ 86.480833333333337, 20.3325 ] } },
{ "type": "Feature", "properties": { "name": "KATRAGADDA", "stationCode": "KATRAGADDA", "lat": 18.993611111111111, "lon": 83.811944444444435, "index_right": 83, "block_lgd": "03359", "dtname": "Gajapati", "dtcode11": "389", "block_name": "KASINAGAR", "object_id": "21-389-03359", "block_area": 225 }, "geometry": { "type": "Point", "coordinates": [ 83.811944444444435, 18.993611111111111 ] } },
{ "type": "Feature", "properties": { "name": "Panposh", "stationCode": "019-ERDBWN", "lat": 22.226388888888888, "lon": 84.806111111111107, "index_right": 299, "block_lgd": "03575", "dtname": "Sundargarh", "dtcode11": "374", "block_name": "BISRA", "object_id": "21-374-03575", "block_area": 351 }, "geometry": { "type": "Point", "coordinates": [ 84.806111111111107, 22.226388888888888 ] } },
{ "type": "Feature", "properties": { "name": "Salebhata", "stationCode": "014-MDBURLA", "lat": 20.983055555555556, "lon": 83.539444444444442, "index_right": 293, "block_lgd": "03569", "dtname": "Sonepur", "dtcode11": "392", "block_name": "DUNGURIPALI", "object_id": "21-392-03569", "block_area": 295 }, "geometry": { "type": "Point", "coordinates": [ 83.539444444444442, 20.983055555555556 ] } },
{ "type": "Feature", "properties": { "name": "Kesinga", "stationCode": "022-MDBURLA", "lat": 20.1975, "lon": 83.225, "index_right": 140, "block_lgd": "03416", "dtname": "Kalahandi", "dtcode11": "395", "block_name": "KESINGA", "object_id": "21-395-03416", "block_area": 587 }, "geometry": { "type": "Point", "coordinates": [ 83.225, 20.1975 ] } },
{ "type": "Feature", "properties": { "name": "Kantamal", "stationCode": "023-MDBURLA", "lat": 20.658333333333331, "lon": 83.731944444444451, "index_right": 55, "block_lgd": "03331", "dtname": "Boudh", "dtcode11": "391", "block_name": "KANTAMAL", "object_id": "21-391-03331", "block_area": 1012 }, "geometry": { "type": "Point", "coordinates": [ 83.731944444444451, 20.658333333333331 ] } },
{ "type": "Feature", "properties": { "name": "Deogaon", "stationCode": "030-MDBURLA", "lat": 21.309166666666663, "lon": 83.899722222222223, "index_right": 283, "block_lgd": "03559", "dtname": "Sambalpur", "dtcode11": "372", "block_name": "DHANKAUDA", "object_id": "21-372-03559", "block_area": 497 }, "geometry": { "type": "Point", "coordinates": [ 83.899722222222223, 21.309166666666663 ] } },
{ "type": "Feature", "properties": { "name": "Khairmal", "stationCode": "031-MDBURLA", "lat": 20.830555555555556, "lon": 84.0, "index_right": 53, "block_lgd": "03329", "dtname": "Boudh", "dtcode11": "391", "block_name": "BOUDH", "object_id": "21-391-03329", "block_area": 916 }, "geometry": { "type": "Point", "coordinates": [ 84.0, 20.830555555555556 ] } },
{ "type": "Feature", "properties": { "name": "Padampur", "stationCode": "058-MDBURLA", "lat": 21.015833333333333, "lon": 83.103055555555557, "index_right": 43, "block_lgd": "03319", "dtname": "Bargarh", "dtcode11": "370", "block_name": "PADAMPUR", "object_id": "21-370-03319", "block_area": 600 }, "geometry": { "type": "Point", "coordinates": [ 83.103055555555557, 21.015833333333333 ] } },
{ "type": "Feature", "properties": { "name": "Kanas (S)", "stationCode": "033-MDBURLA", "lat": 20.003611111111113, "lon": 85.643888888888895, "index_right": 265, "block_lgd": "03541", "dtname": "Puri", "dtcode11": "387", "block_name": "KANAS", "object_id": "21-387-03541", "block_area": 222 }, "geometry": { "type": "Point", "coordinates": [ 85.643888888888895, 20.003611111111113 ] } },
{ "type": "Feature", "properties": { "name": "Pubansa (S)", "stationCode": "040-MDBURLA", "lat": 20.444166666666668, "lon": 86.2475, "index_right": 66, "block_lgd": "03342", "dtname": "Cuttack", "dtcode11": "381", "block_name": "NISCHINTA KOILI", "object_id": "21-381-03342", "block_area": 224 }, "geometry": { "type": "Point", "coordinates": [ 86.2475, 20.444166666666668 ] } },
{ "type": "Feature", "properties": { "name": "Mohana", "stationCode": "032-ERDBWN", "lat": 19.444722222222222, "lon": 84.261388888888888, "index_right": 84, "block_lgd": "03360", "dtname": "Gajapati", "dtcode11": "389", "block_name": "MOHANA", "object_id": "21-389-03360", "block_area": 1442 }, "geometry": { "type": "Point", "coordinates": [ 84.261388888888888, 19.444722222222222 ] } },
{ "type": "Feature", "properties": { "name": "Altuma", "stationCode": "018-ERDBWN", "lat": 20.930833333333336, "lon": 85.519166666666663, "index_right": 77, "block_lgd": "03353", "dtname": "Dhenkanal", "dtcode11": "383", "block_name": "KAMAKHYANAGAR", "object_id": "21-383-03353", "block_area": 590 }, "geometry": { "type": "Point", "coordinates": [ 85.519166666666663, 20.930833333333336 ] } },
{ "type": "Feature", "properties": { "name": "Jeypore", "stationCode": "003-ERDBWN", "lat": 21.609166666666667, "lon": 86.683333333333337, "index_right": 218, "block_lgd": "03494", "dtname": "Mayurbhanj", "dtcode11": "376", "block_name": "GOPABANDHUNAGAR", "object_id": "21-376-03494", "block_area": 174 }, "geometry": { "type": "Point", "coordinates": [ 86.683333333333337, 21.609166666666667 ] } },
{ "type": "Feature", "properties": { "name": "Khandapara", "stationCode": "038-MDBURLA", "lat": 20.2575, "lon": 85.185555555555553, "index_right": 250, "block_lgd": "03526", "dtname": "Nayagarh", "dtcode11": "385", "block_name": "KHANDAPARA", "object_id": "21-385-03526", "block_area": 366 }, "geometry": { "type": "Point", "coordinates": [ 85.185555555555553, 20.2575 ] } },
{ "type": "Feature", "properties": { "name": "Padmavati", "stationCode": "035-MDBURLA", "lat": 20.01, "lon": 85.2975, "index_right": 254, "block_lgd": "03530", "dtname": "Nayagarh", "dtcode11": "385", "block_name": "RANAPUR", "object_id": "21-385-03530", "block_area": 597 }, "geometry": { "type": "Point", "coordinates": [ 85.2975, 20.01 ] } },
{ "type": "Feature", "properties": { "name": "Gudari", "stationCode": "034-ERDBWN", "lat": 19.383333333333333, "lon": 83.792222222222222, "index_right": 273, "block_lgd": "03549", "dtname": "Rayagada", "dtcode11": "396", "block_name": "GUDARI", "object_id": "21-396-03549", "block_area": 535 }, "geometry": { "type": "Point", "coordinates": [ 83.792222222222222, 19.383333333333333 ] } },
{ "type": "Feature", "properties": { "name": "Talcher", "stationCode": "022-ERDBWN", "lat": 20.91888888888889, "lon": 85.23555555555555, "index_right": 7, "block_lgd": "03283", "dtname": "Anugul", "dtcode11": "384", "block_name": "TALACHER", "object_id": "21-384-03283", "block_area": 287 }, "geometry": { "type": "Point", "coordinates": [ 85.23555555555555, 20.91888888888889 ] } },
{ "type": "Feature", "properties": { "name": "Tikarpara", "stationCode": "034-MDBURLA", "lat": 20.599444444444444, "lon": 84.781666666666666, "index_right": 0, "block_lgd": "03276", "dtname": "Anugul", "dtcode11": "384", "block_name": "ANUGUL", "object_id": "21-384-03276", "block_area": 1116 }, "geometry": { "type": "Point", "coordinates": [ 84.781666666666666, 20.599444444444444 ] } },
{ "type": "Feature", "properties": { "name": "Jamsholaghat", "stationCode": "010-ERDBWN", "lat": 22.21972222222222, "lon": 86.716666666666669, "index_right": 231, "block_lgd": "03507", "dtname": "Mayurbhanj", "dtcode11": "376", "block_name": "SARASKANA", "object_id": "21-376-03507", "block_area": 341 }, "geometry": { "type": "Point", "coordinates": [ 86.716666666666669, 22.21972222222222 ] } },
{ "type": "Feature", "properties": { "name": "Sorada", "stationCode": "028ERDBWN", "lat": 19.755555555555556, "lon": 84.44305555555556, "index_right": 109, "block_lgd": "03385", "dtname": "Ganjam", "dtcode11": "388", "block_name": "SURADA", "object_id": "21-388-03385", "block_area": 1040 }, "geometry": { "type": "Point", "coordinates": [ 84.44305555555556, 19.755555555555556 ] } },
{ "type": "Feature", "properties": { "name": "Swampatna", "stationCode": "013-ERDBWN", "lat": 21.616666666666667, "lon": 85.916666666666671, "index_right": 178, "block_lgd": "03454", "dtname": "Kendujhar", "dtcode11": "375", "block_name": "SAHARAPADA", "object_id": "21-375-03454", "block_area": 322 }, "geometry": { "type": "Point", "coordinates": [ 85.916666666666671, 21.616666666666667 ] } },
{ "type": "Feature", "properties": { "name": "Madhabarida", "stationCode": "030-ERDBWN", "lat": 19.853055555555557, "lon": 84.626388888888883, "index_right": 90, "block_lgd": "03366", "dtname": "Ganjam", "dtcode11": "388", "block_name": "BELLAGUNTHA", "object_id": "21-388-03366", "block_area": 234 }, "geometry": { "type": "Point", "coordinates": [ 84.626388888888883, 19.853055555555557 ] } },
{ "type": "Feature", "properties": { "name": "Baripada", "stationCode": "004-ERDBWN", "lat": 21.931111111111111, "lon": 86.718611111111116, "index_right": 230, "block_lgd": "03506", "dtname": "Mayurbhanj", "dtcode11": "376", "block_name": "SAMAKHUNTA", "object_id": "21-376-03506", "block_area": 804 }, "geometry": { "type": "Point", "coordinates": [ 86.718611111111116, 21.931111111111111 ] } },
{ "type": "Feature", "properties": { "name": "Bhejdih", "stationCode": "068-ERDBWN", "lat": 21.476388888888888, "lon": 86.286388888888894, "index_right": 234, "block_lgd": "03510", "dtname": "Mayurbhanj", "dtcode11": "376", "block_name": "THAKURMUNDA", "object_id": "21-376-03510", "block_area": 966 }, "geometry": { "type": "Point", "coordinates": [ 86.286388888888894, 21.476388888888888 ] } },
{ "type": "Feature", "properties": { "name": "Kolipal", "stationCode": "073-ERDBWN", "lat": 21.43888888888889, "lon": 85.187777777777782, "index_right": 6, "block_lgd": "03282", "dtname": "Anugul", "dtcode11": "384", "block_name": "PALALAHADA", "object_id": "21-384-03282", "block_area": 1175 }, "geometry": { "type": "Point", "coordinates": [ 85.187777777777782, 21.43888888888889 ] } },
{ "type": "Feature", "properties": { "name": "Jaggaguda", "stationCode": "048-ERDBWN", "lat": 19.111388888888889, "lon": 83.424166666666665, "index_right": 281, "block_lgd": "03557", "dtname": "Rayagada", "dtcode11": "396", "block_name": "RAYAGADA", "object_id": "21-396-03557", "block_area": 825 }, "geometry": { "type": "Point", "coordinates": [ 83.424166666666665, 19.111388888888889 ] } },
{ "type": "Feature", "properties": { "name": "Saradaput", "stationCode": "023-LGDHYD", "lat": 18.6125, "lon": 82.142777777777781, "index_right": 209, "block_lgd": "03485", "dtname": "Malkangiri", "dtcode11": "399", "block_name": "MATHILI", "object_id": "21-399-03485", "block_area": 719 }, "geometry": { "type": "Point", "coordinates": [ 82.142777777777781, 18.6125 ] } },
{ "type": "Feature", "properties": { "name": "Bhingarpur ", "stationCode": "049-MDBURLA", "lat": 20.266388888888891, "lon": 85.9375, "index_right": 180, "block_lgd": "03456", "dtname": "Khordha", "dtcode11": "386", "block_name": "BALIANTA", "object_id": "21-386-03456", "block_area": 135 }, "geometry": { "type": "Point", "coordinates": [ 85.9375, 20.266388888888891 ] } },
{ "type": "Feature", "properties": { "name": "Brahmnihalua", "stationCode": "070-ERDBWN", "lat": 19.0525, "lon": 83.435277777777785, "index_right": 281, "block_lgd": "03557", "dtname": "Rayagada", "dtcode11": "396", "block_name": "RAYAGADA", "object_id": "21-396-03557", "block_area": 825 }, "geometry": { "type": "Point", "coordinates": [ 83.435277777777785, 19.0525 ] } },
{ "type": "Feature", "properties": { "name": "Kathajori Rd.Bridge", "stationCode": "048-MDBURLA", "lat": 20.4375, "lon": 85.887222222222235, "index_right": 61, "block_lgd": "03337", "dtname": "Cuttack", "dtcode11": "381", "block_name": "CUTTACKSADAR", "object_id": "21-381-03337", "block_area": 362 }, "geometry": { "type": "Point", "coordinates": [ 85.887222222222235, 20.4375 ] } },
{ "type": "Feature", "properties": { "name": "Nowrangpur", "stationCode": "003-lgdhyd", "lat": 19.1975, "lon": 82.511944444444438, "index_right": 192, "block_lgd": "03468", "dtname": "Koraput", "dtcode11": "398", "block_name": "BORIGUMMA", "object_id": "21-398-03468", "block_area": 640 }, "geometry": { "type": "Point", "coordinates": [ 82.511944444444438, 19.1975 ] } },
{ "type": "Feature", "properties": { "name": "Kosagumda (Bhaskel)", "stationCode": "004-lgdhyd", "lat": 19.277222222222221, "lon": 82.233055555555552, "index_right": 240, "block_lgd": "03516", "dtname": "Nabarangpur", "dtcode11": "397", "block_name": "KOSAGUMUDA", "object_id": "21-397-03516", "block_area": 655 }, "geometry": { "type": "Point", "coordinates": [ 82.233055555555552, 19.277222222222221 ] } },
{ "type": "Feature", "properties": { "name": "Rajghat", "stationCode": "007RAJG", "lat": 21.767777777525993, "lon": 87.164166666199606, "index_right": 27, "block_lgd": "03303", "dtname": "Baleshwar", "dtcode11": "377", "block_name": "JALESWAR", "object_id": "21-377-03303", "block_area": 376 }, "geometry": { "type": "Point", "coordinates": [ 87.164166666199606, 21.767777777525993 ] } },
{ "type": "Feature", "properties": { "name": "BURLA", "stationCode": "064-MDBURLA", "lat": 21.508333333333333, "lon": 83.890833333333333, "index_right": 283, "block_lgd": "03559", "dtname": "Sambalpur", "dtcode11": "372", "block_name": "DHANKAUDA", "object_id": "21-372-03559", "block_area": 497 }, "geometry": { "type": "Point", "coordinates": [ 83.890833333333333, 21.508333333333333 ] } },
{ "type": "Feature", "properties": { "name": "Sundergarh", "stationCode": "008-MDBURLA", "lat": 22.115277777777781, "lon": 84.011111111111106, "index_right": 312, "block_lgd": "03588", "dtname": "Sundargarh", "dtcode11": "374", "block_name": "SUNDARGARH", "object_id": "21-374-03588", "block_area": 380 }, "geometry": { "type": "Point", "coordinates": [ 84.011111111111106, 22.115277777777781 ] } },
{ "type": "Feature", "properties": { "name": "Gopalpur", "stationCode": "045-MDBURLA", "lat": 22.044722222222223, "lon": 83.729166666666671, "index_right": 302, "block_lgd": "03578", "dtname": "Sundargarh", "dtcode11": "374", "block_name": "HEMGIR", "object_id": "21-374-03578", "block_area": 885 }, "geometry": { "type": "Point", "coordinates": [ 83.729166666666671, 22.044722222222223 ] } },
{ "type": "Feature", "properties": { "name": "Mahendragarh", "stationCode": "031-ERDBWN", "lat": 19.223333333333333, "lon": 84.2625, "index_right": 86, "block_lgd": "03362", "dtname": "Gajapati", "dtcode11": "389", "block_name": "R.UDAYAGIRI", "object_id": "21-389-03362", "block_area": 684 }, "geometry": { "type": "Point", "coordinates": [ 84.2625, 19.223333333333333 ] } },
{ "type": "Feature", "properties": { "name": "Balimundali", "stationCode": "001-ERDBWN", "lat": 21.733888888888888, "lon": 86.63333333333334, "index_right": 223, "block_lgd": "03499", "dtname": "Mayurbhanj", "dtcode11": "376", "block_name": "KHUNTA", "object_id": "21-376-03499", "block_area": 236 }, "geometry": { "type": "Point", "coordinates": [ 86.63333333333334, 21.733888888888888 ] } },
{ "type": "Feature", "properties": { "name": "Kamakshya Nagar Rd. Bridge", "stationCode": "052-ERDBWN", "lat": 20.747222222222224, "lon": 85.555555555555557, "index_right": 77, "block_lgd": "03353", "dtname": "Dhenkanal", "dtcode11": "383", "block_name": "KAMAKHYANAGAR", "object_id": "21-383-03353", "block_area": 590 }, "geometry": { "type": "Point", "coordinates": [ 85.555555555555557, 20.747222222222224 ] } },
{ "type": "Feature", "properties": { "name": "Bhuban Baji Rout Rd.Bridge", "stationCode": "049-ERDBWN", "lat": 20.861666666666668, "lon": 85.859722222222217, "index_right": 73, "block_lgd": "03349", "dtname": "Dhenkanal", "dtcode11": "383", "block_name": "BHUBAN", "object_id": "21-383-03349", "block_area": 234 }, "geometry": { "type": "Point", "coordinates": [ 85.859722222222217, 20.861666666666668 ] } },
{ "type": "Feature", "properties": { "name": "Kurula", "stationCode": "042-erdbwn", "lat": 19.454166666666666, "lon": 84.70472222222223, "index_right": 108, "block_lgd": "03384", "dtname": "Ganjam", "dtcode11": "388", "block_name": "SHERAGADA", "object_id": "21-388-03384", "block_area": 114 }, "geometry": { "type": "Point", "coordinates": [ 84.70472222222223, 19.454166666666666 ] } },
{ "type": "Feature", "properties": { "name": "Kutragada", "stationCode": "033-ERDBWN", "lat": 19.614722222222223, "lon": 83.550277777777779, "index_right": 272, "block_lgd": "03548", "dtname": "Rayagada", "dtcode11": "396", "block_name": "CHANDRAPUR", "object_id": "21-396-03548", "block_area": 832 }, "geometry": { "type": "Point", "coordinates": [ 83.550277777777779, 19.614722222222223 ] } },
{ "type": "Feature", "properties": { "name": "Keshdihi", "stationCode": "067-ERDBWN", "lat": 21.540833333333335, "lon": 86.201111111111118, "index_right": 234, "block_lgd": "03510", "dtname": "Mayurbhanj", "dtcode11": "376", "block_name": "THAKURMUNDA", "object_id": "21-376-03510", "block_area": 966 }, "geometry": { "type": "Point", "coordinates": [ 86.201111111111118, 21.540833333333335 ] } },
{ "type": "Feature", "properties": { "name": "Bolani", "stationCode": "065-ERDBWN", "lat": 22.105277777777779, "lon": 84.850555555555545, "index_right": 307, "block_lgd": "03583", "dtname": "Sundargarh", "dtcode11": "374", "block_name": "LATHIKATA", "object_id": "21-374-03583", "block_area": 465 }, "geometry": { "type": "Point", "coordinates": [ 84.850555555555545, 22.105277777777779 ] } },
{ "type": "Feature", "properties": { "name": "Bonaigarh", "stationCode": "050-ERDBWN", "lat": 21.8475, "lon": 84.875833333333333, "index_right": 306, "block_lgd": "03582", "dtname": "Sundargarh", "dtcode11": "374", "block_name": "LAHUNIPARA", "object_id": "21-374-03582", "block_area": 865 }, "geometry": { "type": "Point", "coordinates": [ 84.875833333333333, 21.8475 ] } },
{ "type": "Feature", "properties": { "name": "Purunagarh", "stationCode": "053-ERDBWN", "lat": 21.526388888888889, "lon": 84.7125, "index_right": 72, "block_lgd": "03348", "dtname": "Deogarh", "dtcode11": "373", "block_name": "TILEIBANI", "object_id": "21-373-03348", "block_area": 1011 }, "geometry": { "type": "Point", "coordinates": [ 84.7125, 21.526388888888889 ] } },
{ "type": "Feature", "properties": { "name": "Gohira", "stationCode": "051-ERDBWN", "lat": 21.457777777777778, "lon": 84.691666666666677, "index_right": 71, "block_lgd": "03347", "dtname": "Deogarh", "dtcode11": "373", "block_name": "REAMAL", "object_id": "21-373-03347", "block_area": 1002 }, "geometry": { "type": "Point", "coordinates": [ 84.691666666666677, 21.457777777777778 ] } },
{ "type": "Feature", "properties": { "name": "Parmanpur", "stationCode": "002-MDBURLA", "lat": 21.772778, "lon": 84.081667, "index_right": 128, "block_lgd": "03404", "dtname": "Jharsuguda", "dtcode11": "371", "block_name": "JHARSUGUDA", "object_id": "21-371-03404", "block_area": 433 }, "geometry": { "type": "Point", "coordinates": [ 84.081667, 21.772778 ] } },
{ "type": "Feature", "properties": { "name": "Gomlai", "stationCode": "020-ERDBWN", "lat": 21.834444444444443, "lon": 84.912777777777777, "index_right": 306, "block_lgd": "03582", "dtname": "Sundargarh", "dtcode11": "374", "block_name": "LAHUNIPARA", "object_id": "21-374-03582", "block_area": 865 }, "geometry": { "type": "Point", "coordinates": [ 84.912777777777777, 21.834444444444443 ] } },
{ "type": "Feature", "properties": { "name": "Keonjhar", "stationCode": "017-ERDBWN", "lat": 21.62777777777778, "lon": 85.631388888888878, "index_right": 176, "block_lgd": "03452", "dtname": "Kendujhar", "dtcode11": "375", "block_name": "KENDUJHAR SADAR", "object_id": "21-375-03452", "block_area": 568 }, "geometry": { "type": "Point", "coordinates": [ 85.631388888888878, 21.62777777777778 ] } },
{ "type": "Feature", "properties": { "name": "Champua", "stationCode": "014-ERDBWN", "lat": 22.068888888888889, "lon": 85.670555555555566, "index_right": 169, "block_lgd": "03445", "dtname": "Kendujhar", "dtcode11": "375", "block_name": "CHAMPUA", "object_id": "21-375-03445", "block_area": 449 }, "geometry": { "type": "Point", "coordinates": [ 85.670555555555566, 22.068888888888889 ] } },
{ "type": "Feature", "properties": { "name": "Arampur", "stationCode": "059-MDBURLA", "lat": 20.809166666666663, "lon": 84.61333333333333, "index_right": 1, "block_lgd": "03277", "dtname": "Anugul", "dtcode11": "384", "block_name": "ATHMALLIK", "object_id": "21-384-03277", "block_area": 1027 }, "geometry": { "type": "Point", "coordinates": [ 84.61333333333333, 20.809166666666663 ] } },
{ "type": "Feature", "properties": { "name": "Jamadarpali", "stationCode": "029-MDBURLA", "lat": 21.553888888888888, "lon": 83.972222222222229, "index_right": 283, "block_lgd": "03559", "dtname": "Sambalpur", "dtcode11": "372", "block_name": "DHANKAUDA", "object_id": "21-372-03559", "block_area": 497 }, "geometry": { "type": "Point", "coordinates": [ 83.972222222222229, 21.553888888888888 ] } },
{ "type": "Feature", "properties": { "name": "Kishan Nagar ", "stationCode": "046-MDBURLA", "lat": 20.428611111111113, "lon": 86.090555555555554, "index_right": 61, "block_lgd": "03337", "dtname": "Cuttack", "dtcode11": "381", "block_name": "CUTTACKSADAR", "object_id": "21-381-03337", "block_area": 362 }, "geometry": { "type": "Point", "coordinates": [ 86.090555555555554, 20.428611111111113 ] } },
{ "type": "Feature", "properties": { "name": "Boudh", "stationCode": "057-MDBURLA", "lat": 20.865555555555556, "lon": 84.313333333333333, "index_right": 1, "block_lgd": "03277", "dtname": "Anugul", "dtcode11": "384", "block_name": "ATHMALLIK", "object_id": "21-384-03277", "block_area": 1027 }, "geometry": { "type": "Point", "coordinates": [ 84.313333333333333, 20.865555555555556 ] } },
{ "type": "Feature", "properties": { "name": "Balakati ", "stationCode": "050-MDBURLA", "lat": 20.203611111111112, "lon": 85.855277777777772, "index_right": 184, "block_lgd": "03460", "dtname": "Khordha", "dtcode11": "386", "block_name": "BHUBANESWAR", "object_id": "21-386-03460", "block_area": 455 }, "geometry": { "type": "Point", "coordinates": [ 85.855277777777772, 20.203611111111112 ] } },
{ "type": "Feature", "properties": { "name": "Balanga ", "stationCode": "051-MDBURLA", "lat": 20.039166666666667, "lon": 85.879166666666663, "index_right": 267, "block_lgd": "03543", "dtname": "Puri", "dtcode11": "387", "block_name": "NIMAPADA", "object_id": "21-387-03543", "block_area": 322 }, "geometry": { "type": "Point", "coordinates": [ 85.879166666666663, 20.039166666666667 ] } },
{ "type": "Feature", "properties": { "name": "Daya Rd.Bridge ", "stationCode": "052-mdburla", "lat": 20.203055555555551, "lon": 85.861666666666665, "index_right": 184, "block_lgd": "03460", "dtname": "Khordha", "dtcode11": "386", "block_name": "BHUBANESWAR", "object_id": "21-386-03460", "block_area": 455 }, "geometry": { "type": "Point", "coordinates": [ 85.861666666666665, 20.203055555555551 ] } },
{ "type": "Feature", "properties": { "name": "Tarpur ", "stationCode": "047-MDBURLA", "lat": 20.3575, "lon": 86.229444444444439, "index_right": 116, "block_lgd": "03392", "dtname": "Jagatsinghapur", "dtcode11": "380", "block_name": "RAGHUNATHPUR", "object_id": "21-380-03392", "block_area": 115 }, "geometry": { "type": "Point", "coordinates": [ 86.229444444444439, 20.3575 ] } }
]
}
